TDRS 3                  
1 19548U 88091B   26194.29211280 -.00000304  00000+0  00000+0 0  9996
2 19548  12.5822 340.8264 0037031 355.4822  10.8673  1.00263155125656
FLTSATCOM 8 (USA 46)    
1 20253U 89077A   26194.57879103 -.00000375  00000+0  00000+0 0  9999
2 20253  12.4140 351.0017 0003453  70.2029 204.1322  1.00263838260821
SKYNET 4C               
1 20776U 90079A   26194.60074676 -.00000115  00000+0  00000+0 0  9991
2 20776  13.3298 349.6461 0002785 135.9203 222.9497  0.98577960   295
TDRS 5                  
1 21639U 91054B   26194.52529112  .00000076  00000+0  00000+0 0  9990
2 21639  14.0678 353.5809 0007448 257.8884  61.3333  1.00272757127973
TDRS 6                  
1 22314U 93003B   26194.33799714 -.00000303  00000+0  00000+0 0  9997
2 22314  14.1832 356.8614 0008257 183.8079 186.1575  1.00280434122677
UFO 2 (USA 95)          
1 22787U 93056A   26194.13892058  .00000117  00000+0  00000+0 0  9994
2 22787  11.9040   3.4086 0002616   8.5210 357.7362  1.00269447118810
USA 99 (MILSTAR-1 1)    
1 22988U 94009A   26194.18597069 -.00000028  00000+0  00000+0 0  9997
2 22988  17.6645  27.4344 0001561 199.4851 350.9588  0.98721007 33204
UFO 4 (USA 108)         
1 23467U 95003A   26194.37301220 -.00000028  00000+0  00000+0 0  9998
2 23467   9.6747  13.0172 0003144  97.5823 127.2823  1.00276013115212
TDRS 7                  
1 23613U 95035B   26194.43603878 -.00000247  00000+0  00000+0 0  9990
2 23613  13.3662 348.0064 0011543  85.9714 103.5569  1.00274344113516
USA 115 (MILSTAR-1 2)   
1 23712U 95060A   26194.47186537 -.00000211  00000+0  00000+0 0  9991
2 23712  14.0821   3.5473 0006053 123.8204 243.8332  1.00272725 33152
INMARSAT 3-F1           
1 23839U 96020A   26194.60522303  .00000036  00000+0  00000+0 0  9992
2 23839  10.6542  46.3872 0004429  87.2947 252.5855  0.99979960110519
INMARSAT 3-F2           
1 24307U 96053A   26194.51415492 -.00000370  00000+0  00000+0 0  9991
2 24307   9.9143  53.6645 0006397  53.2592 133.0062  0.99992441109185
INMARSAT 3-F3           
1 24674U 96070A   26194.27894836  .00000039  00000+0  00000+0 0  9994
2 24674  10.3728  49.3991 0003542  74.2910 283.7749  0.99994514108164
USA 134                 
1 25019U 97065A   26194.51693044 -.00000073  00000+0  00000+0 0  9997
2 25019  12.8147  21.5208 0002507 333.4964  10.0448  1.00273348 33210
INMARSAT 3-F5           
1 25153U 98006B   26194.54688950 -.00000302  00000+0  00000+0 0  9990
2 25153   9.7501  52.9927 0004304  61.4819 319.8534  1.00273567104160
ABS-6                   
1 25924U 99053A   26194.63594707 -.00000124  00000+0  00000+0 0  9997
2 25924   0.0593 262.0495 0003339 191.2274 226.1561  1.00272410 98101
UFO 10 (USA 146)        
1 25967U 99063A   26194.34259050 -.00000197  00000+0  00000+0 0  9992
2 25967   9.8595  27.0699 0001526 113.6491 250.8846  1.00272907 97613
ASIASTAR                
1 26107U 00016A   26194.58181461 -.00000345  00000+0  00000+0 0  9990
2 26107   9.1888  57.8676 0003719  66.4534 121.6030  1.00271861 96182
USA 149 (DSP 20)        
1 26356U 00024A   26194.31669299  .00000087  00000+0  00000+0 0  9998
2 26356  13.1896  11.6620 0001755 309.4410 279.4197  1.00281340 33179
TDRS 8                  
1 26388U 00034A   26194.60755634 -.00000208  00000+0  00000+0 0  9991
2 26388  12.7240  31.0938 0004109  35.4521 168.5056  1.00272661 95441
NSS-11                  
1 26554U 00059A   26194.59589340  .00000018  00000+0  00000+0 0  9998
2 26554   2.1924  81.0753 0002809  36.1957 204.7174  1.00270678 41557
USA 153                 
1 26575U 00065A   26194.45580530 -.00000336  00000+0  00000+0 0  9999
2 26575  11.6684  35.1979 0002093  57.8725 136.8117  1.00273111 33194
AMC-6                   
1 26580U 00067A   26194.60551345  .00000084  00000+0  00000+0 0  9995
2 26580   0.2173  83.6318 0003766  41.6462 249.1362  1.00270177 94151
USA 157 (MILSTAR-2 2)   
1 26715U 01009A   26194.61835218  .00000099  00000+0  00000+0 0  9993
2 26715  11.5712  19.5950 0040523 179.3189 165.0911  1.00273482 33209
INTELSAT 902 (IS-902)   
1 26900U 01039A   26194.55106730 -.00000293  00000+0  00000+0 0  9992
2 26900   6.1812  71.4591 0004414  38.1703 330.0689  1.00270360 90961
USA 164 (MILSTAR-2 3)   
1 27168U 02001A   26194.20834612  .00000090  00000+0  00000+0 0  9992
2 27168  11.2098  21.7434 0098506   8.9529 354.4095  1.00276406 33225
INTELSAT 904 (IS-904)   
1 27380U 02007A   26194.41219659 -.00000235  00000+0  00000+0 0  9997
2 27380   6.9831  68.8659 0005362  24.3166 315.0289  1.00271020 52029
DIRECTV 5 (TEMPO 1)     
1 27426U 02023A   26194.61054014 -.00000066  00000+0  00000+0 0  9992
2 27426   4.9429  74.9794 0003027  44.2993 281.8868  1.00271118 88383
INTELSAT 905 (IS-905)   
1 27438U 02027A   26194.51738623  .00000084  00000+0  00000+0 0  9992
2 27438   6.8171  69.4788 0003443  46.7281 224.2350  1.00271302 51621
GALAXY 3C (G-3C)        
1 27445U 02030A   26194.61348683 -.00000160  00000+0  00000+0 0  9994
2 27445   3.7996  77.6313 0001489  37.5348 302.3453  1.00270730 46759
INTELSAT 906 (IS-906)   
1 27513U 02041A   26194.21727284  .00000005  00000+0  00000+0 0  9993
2 27513   5.8663  72.6001 0003876  22.4752 338.3809  1.00272740 87293
